IRIDIUM 138             
1 43071U 17083B   26196.78202595  .00000139  00000+0  42587-4 0  9998
2 43071  86.3999 309.7623 0002056  92.1510 267.9921 14.34218791448239
IRIDIUM 116             
1 43072U 17083C   26196.82008186  .00000135  00000+0  41009-4 0  9998
2 43072  86.3986 310.0322 0002461  98.2597 261.8878 14.34217958448271
IRIDIUM 130             
1 43073U 17083D   26196.78837266  .00000139  00000+0  42700-4 0  9996
2 43073  86.3993 310.3235 0002270 100.5224 259.6228 14.34218110448217
IRIDIUM 151             
1 43074U 17083E   26196.83276861  .00000128  00000+0  38687-4 0  9998
2 43074  86.3986 310.0853 0002248  95.1346 265.0107 14.34218240448246
IRIDIUM 134             
1 43075U 17083F   26196.80105553  .00000074  00000+0  19200-4 0  9995
2 43075  86.3989 310.1070 0002221  95.0989 265.0460 14.34218041448202
IRIDIUM 137             
1 43076U 17083G   26196.81374164  .00000084  00000+0  22774-4 0  9994
2 43076  86.3992 310.1952 0002709  93.4974 266.6531 14.34218184448274
IRIDIUM 141             
1 43077U 17083H   26196.80739759  .00000084  00000+0  23022-4 0  9996
2 43077  86.3985 310.0267 0002172  93.1582 266.9862 14.34217813448279
IRIDIUM 153             
1 43078U 17083J   26196.27119678  .00000070  00000+0  17923-4 0  9998
2 43078  86.3959 278.7300 0002116  94.5036 265.6402 14.34217888449309
IRIDIUM 131             
1 43079U 17083K   26196.79471247  .00000114  00000+0  33498-4 0  9993
2 43079  86.3990 310.2199 0002233  93.6709 266.4743 14.34218512448200
IRIDIUM 144             
1 43249U 18030A   26196.27753968  .00000067  00000+0  16888-4 0  9992
2 43249  86.3957 278.6559 0002380  96.8926 263.2540 14.34217949434161
IRIDIUM 149             
1 43250U 18030B   26196.77226194  .00000100  00000+0  28590-4 0  9996
2 43250  86.3956 278.4156 0002258  93.0254 267.1200 14.34218133434252
IRIDIUM 157             
1 43251U 18030C   26196.23314401  .00000141  00000+0  43165-4 0  9997
2 43251  86.3960 278.6951 0002253  94.2199 265.9254 14.34218060434152
IRIDIUM 140             
1 43252U 18030D   26196.74055154  .00000149  00000+0  46306-4 0  9999
2 43252  86.3958 278.4954 0002237  95.7554 264.3896 14.34217805434289
IRIDIUM 145             
1 43253U 18030E   26196.30925224  .00000115  00000+0  33887-4 0  9999
2 43253  86.3957 278.6477 0002543 100.4482 259.7000 14.34217461434154
IRIDIUM 146             
1 43254U 18030F   26196.29022488  .00000067  00000+0  16691-4 0  9998
2 43254  86.3959 278.6680 0002375  96.3853 263.7614 14.34217577434166
IRIDIUM 148             
1 43255U 18030G   26196.74689453  .00000145  00000+0  44881-4 0  9999
2 43255  86.3960 278.5205 0002336  93.3506 266.7957 14.34218168434261
IRIDIUM 142             
1 43256U 18030H   26196.78494748  .00000085  00000+0  23365-4 0  9992
2 43256  86.3954 278.3925 0002446  96.7055 263.4419 14.34218049434232
IRIDIUM 150             
1 43257U 18030J   26196.19508457 -.00000181  00000+0 -71753-4 0  9994
2 43257  86.3956 278.7566 0002169  95.4767 264.6676 14.34216004434178
IRIDIUM 143             
1 43258U 18030K   26196.73420763  .00000079  00000+0  21214-4 0  9999
2 43258  86.3962 278.6246 0002339  97.3101 262.8361 14.34217578434181
IRIDIUM 161             
1 43478U 18047C   26196.73329480  .00000159  00000+0  41151-4 0  9996
2 43478  86.4461  76.5332 0002257  80.7326 279.4130 14.43275872429256
IRIDIUM 152             
1 43479U 18047D   26196.77669372  .00000139  00000+0  42632-4 0  9991
2 43479  86.3935  76.3762 0002160  83.4825 276.6617 14.34218490426589
IRIDIUM 147             
1 43480U 18047E   26196.78303539  .00000077  00000+0  20554-4 0  9994
2 43480  86.3938  76.3794 0002272  88.6045 271.5411 14.34217337426589
IRIDIUM 110             
1 43481U 18047F   26196.16146069  .00000156  00000+0  48526-4 0  9997
2 43481  86.3941  76.7320 0002117  77.5222 282.6210 14.34218629426489
IRIDIUM 162             
1 43482U 18047G   26196.17235166  .00000194  00000+0  51639-4 0  9997
2 43482  86.4460  76.6584 0002200  86.9927 273.1526 14.43278508429162
IRIDIUM 160             
1 43569U 18061A   26196.52590767  .00000124  00000+0  37229-4 0  9991
2 43569  86.3939  44.9434 0002237  86.9733 273.1719 14.34217119417437
IRIDIUM 166             
1 43570U 18061B   26196.55127894  .00000081  00000+0  21683-4 0  9992
2 43570  86.3938  44.8830 0002281  89.7669 270.3788 14.34217835417468
IRIDIUM 158             
1 43571U 18061C   26196.51956540  .00000076  00000+0  20199-4 0  9992
2 43571  86.3939  44.9059 0002085  87.7247 272.4188 14.34217880417429
IRIDIUM 165             
1 43572U 18061D   26196.54493704  .00000027  00000+0  25683-5 0  9994
2 43572  86.3939  44.9420 0002284  91.0558 269.0900 14.34217053417455
IRIDIUM 155             
1 43573U 18061E   26196.50688010  .00000094  00000+0  26605-4 0  9995
2 43573  86.3936  44.8262 0002100  89.9376 270.2060 14.34217784417415
IRIDIUM 154             
1 43574U 18061F   26196.55762104  .00000059  00000+0  13992-4 0  9994
2 43574  86.3940  44.9399 0002302  90.6137 269.5322 14.34217479417470
