OBJECT_NAME,OBJECT_ID,EPOCH,MEAN_MOTION,ECCENTRICITY,INCLINATION,RA_OF_ASC_NODE,ARG_OF_PERICENTER,MEAN_ANOMALY,EPHEMERIS_TYPE,CLASSIFICATION_TYPE,NORAD_CAT_ID,ELEMENT_SET_NO,REV_AT_EPOCH,BSTAR,MEAN_MOTION_DOT,MEAN_MOTION_DDOT
IRIDIUM 138,2017-083B,2026-07-15T18:46:07.042080,14.34218791,.0002056,86.3999,309.7623,92.1510,267.9921,0,U,43071,999,44823,.42587E-4,.139E-5,0
IRIDIUM 116,2017-083C,2026-07-15T19:40:55.072704,14.34217958,.0002461,86.3986,310.0322,98.2597,261.8878,0,U,43072,999,44827,.41009E-4,.135E-5,0
IRIDIUM 130,2017-083D,2026-07-15T18:55:15.397824,14.34218110,.000227,86.3993,310.3235,100.5224,259.6228,0,U,43073,999,44821,.427E-4,.139E-5,0
IRIDIUM 151,2017-083E,2026-07-15T19:59:11.207904,14.34218240,.0002248,86.3986,310.0853,95.1346,265.0107,0,U,43074,999,44824,.38687E-4,.128E-5,0
IRIDIUM 134,2017-083F,2026-07-15T19:13:31.197792,14.34218041,.0002221,86.3989,310.1070,95.0989,265.0460,0,U,43075,999,44820,.192E-4,.74E-6,0
IRIDIUM 137,2017-083G,2026-07-15T19:31:47.277696,14.34218184,.0002709,86.3992,310.1952,93.4974,266.6531,0,U,43076,999,44827,.22774E-4,.84E-6,0
IRIDIUM 141,2017-083H,2026-07-15T19:22:39.151776,14.34217813,.0002172,86.3985,310.0267,93.1582,266.9862,0,U,43077,999,44827,.23022E-4,.84E-6,0
IRIDIUM 153,2017-083J,2026-07-15T06:30:31.401792,14.34217888,.00021169,86.3959,278.7300,94.5036,265.6402,0,U,43078,999,44930,.17922754E-4,.7E-6,0
IRIDIUM 131,2017-083K,2026-07-15T19:04:23.157408,14.34218512,.0002233,86.3990,310.2199,93.6709,266.4743,0,U,43079,999,44820,.33498E-4,.114E-5,0
IRIDIUM 144,2018-030A,2026-07-15T06:39:39.428352,14.34217949,.00023805,86.3957,278.6559,96.8926,263.2540,0,U,43249,999,43416,.16887988E-4,.67E-6,0
IRIDIUM 149,2018-030B,2026-07-15T18:32:03.431616,14.34218133,.0002258,86.3956,278.4156,93.0254,267.1200,0,U,43250,999,43425,.2859E-4,.1E-5,0
IRIDIUM 157,2018-030C,2026-07-15T05:35:43.642464,14.34218060,.00022538,86.3960,278.6951,94.2199,265.9254,0,U,43251,999,43415,.43165042E-4,.141E-5,0
IRIDIUM 140,2018-030D,2026-07-15T17:46:23.653056,14.34217805,.0002237,86.3958,278.4954,95.7554,264.3896,0,U,43252,999,43428,.46306E-4,.149E-5,0
IRIDIUM 145,2018-030E,2026-07-15T07:25:19.393536,14.34217461,.00025431,86.3957,278.6477,100.4482,259.7000,0,U,43253,999,43415,.33886785E-4,.115E-5,0
IRIDIUM 146,2018-030F,2026-07-15T06:57:55.429632,14.34217577,.00023758,86.3959,278.6680,96.3853,263.7614,0,U,43254,999,43416,.16690871E-4,.67E-6,0
IRIDIUM 148,2018-030G,2026-07-15T17:55:31.687392,14.34218168,.0002336,86.3960,278.5205,93.3506,266.7957,0,U,43255,999,43426,.44881E-4,.145E-5,0
IRIDIUM 142,2018-030H,2026-07-15T18:50:19.462272,14.34218049,.0002446,86.3954,278.3925,96.7055,263.4419,0,U,43256,999,43423,.23365E-4,.85E-6,0
IRIDIUM 150,2018-030J,2026-07-15T04:40:55.306848,14.34216004,.00021691,86.3956,278.7566,95.4767,264.6676,0,U,43257,999,43417,-.71752641E-4,-.181E-5,0
IRIDIUM 143,2018-030K,2026-07-15T17:37:15.539232,14.34217578,.0002339,86.3962,278.6246,97.3101,262.8361,0,U,43258,999,43418,.21214E-4,.79E-6,0
IRIDIUM 161,2018-047C,2026-07-15T17:35:56.670720,14.43275872,.0002257,86.4461,76.5332,80.7326,279.4130,0,U,43478,999,42925,.41151E-4,.159E-5,0
IRIDIUM 152,2018-047D,2026-07-15T18:38:26.337408,14.34218490,.000216,86.3935,76.3762,83.4825,276.6617,0,U,43479,999,42658,.42632E-4,.139E-5,0
IRIDIUM 147,2018-047E,2026-07-15T18:47:34.257696,14.34217337,.0002272,86.3938,76.3794,88.6045,271.5411,0,U,43480,999,42658,.20554E-4,.77E-6,0
IRIDIUM 110,2018-047F,2026-07-15T03:52:30.203616,14.34218629,.00021179,86.3941,76.7320,77.5222,282.6210,0,U,43481,999,42648,.48525903E-4,.156E-5,0
IRIDIUM 162,2018-047G,2026-07-15T04:08:11.183424,14.43278508,.00022002,86.4460,76.6584,86.9927,273.1526,0,U,43482,999,42916,.5163908E-4,.194E-5,0
IRIDIUM 160,2018-061A,2026-07-15T12:37:18.422688,14.34217119,.00022377,86.3939,44.9434,86.9733,273.1719,0,U,43569,999,41743,.37228617E-4,.124E-5,0
IRIDIUM 166,2018-061B,2026-07-15T13:13:50.500416,14.34217835,.0002281,86.3938,44.8830,89.7669,270.3788,0,U,43570,999,41746,.21683184E-4,.81E-6,0
IRIDIUM 158,2018-061C,2026-07-15T12:28:10.450560,14.34217880,.00020852,86.3939,44.9059,87.7247,272.4188,0,U,43571,999,41742,.20198583E-4,.76E-6,0
IRIDIUM 165,2018-061D,2026-07-15T13:04:42.560256,14.34217053,.0002284,86.3939,44.9420,91.0558,269.0900,0,U,43572,999,41745,.2568262E-5,.27E-6,0
IRIDIUM 155,2018-061E,2026-07-15T12:09:54.440640,14.34217784,.00021008,86.3936,44.8262,89.9376,270.2060,0,U,43573,999,41741,.26604935E-4,.94E-6,0
IRIDIUM 154,2018-061F,2026-07-15T13:22:58.457856,14.34217479,.00023025,86.3940,44.9399,90.6137,269.5322,0,U,43574,999,41747,.13991898E-4,.59E-6,0
